# From MPC106342
C/1995 O1 (Hale-Bopp),e,88.9863,283.3690,130.6255,180.3586,0.0004069,0.99493110,0.0000,03/29.6567/1997,2000,g -2.0,4.0
# From NK 1615
P/1996 R2 (Lagerkvist),e,2.6004,40.0439,333.2959,3.774762,0.1343908,0.31385570,59.1974,04/27.0/2020,2000,g 11.5,4.0
# From MPC 30063
P/1997 B1 (Kobayashi),e,12.3404,328.8934,183.3876,8.561139,0.0393466,0.76006523,332.4248,04/27.0/2020,2000,g 15.0,2.0
# From MPC 75703
P/1998 VS24 (LINEAR),e,5.0242,159.0301,244.7444,4.530949,0.1021928,0.24172491,84.8125,04/27.0/2020,2000,g 13.0,2.0
# From NK 731
P/1999 RO28 (LONEOS),e,7.5657,137.8823,231.2781,3.426748,0.1553749,0.67191097,47.5395,04/27.0/2020,2000,g 20.0,2.0
# From MPC 75704
P/1999 XN120 (Catalina),e,5.0297,285.2958,161.9574,4.179117,0.1153658,0.21052567,121.2000,04/27.0/2020,2000,g 13.5,2.0
# From NK 744
P/2000 R2 (LINEAR),e,11.6834,160.3034,176.4879,3.465165,0.1527982,0.53148168,48.0791,04/27.0/2020,2000,g 18.0,4.0
# From MPC 43019
P/2001 H5 (NEAT),e,8.3688,328.6891,224.8730,6.098112,0.0654502,0.59901417,108.0329,04/27.0/2020,2000,g 12.0,4.0
# From MPC 75704
P/2001 Q6 (NEAT),e,56.8928,22.0970,42.9689,7.947528,0.0439902,0.82267498,298.2613,04/27.0/2020,2000,g 13.5,4.0
# From MPC 47727
P/2002 EJ57 (LINEAR),e,4.9756,330.3498,167.3021,6.473698,0.0598378,0.59329304,40.5791,04/27.0/2020,2000,g 12.5,4.0
# From MPC109588
P/2002 T5 (LINEAR),e,30.8532,123.0896,326.8041,7.000921,0.0532073,0.43759708,328.1844,04/27.0/2020,2000,g  8.0,4.0
# From MPC109588
P/2002 T6 (NEAT-LINEAR),e,10.8343,206.6554,219.4640,7.662077,0.0464712,0.55955337,287.9729,04/27.0/2020,2000,g 10.5,4.0
# From MPC 75007
C/2002 VQ94 (LINEAR),e,70.5230,34.9701,100.1994,187.0025,0.0003854,0.96344614,2.0052,04/27.0/2020,2000,g  9.5,2.0
# From MPC 50354
P/2003 F2 (NEAT),e,11.6057,359.0899,191.8441,6.484868,0.0596832,0.54199364,9.9640,04/27.0/2020,2000,g 16.5,2.0
# From MPC 50139
P/2003 QX29 (NEAT),e,11.3900,264.6039,37.3140,8.037718,0.0432519,0.47282836,276.7118,04/27.0/2020,2000,g  8.5,4.0
# From MPC105235
P/2003 T12 (SOHO),e,11.0160,174.5752,219.7716,2.586060,0.2369989,0.76960118,357.6640,04/27.0/2020,2000,g 17.0,4.0
# From MPC 82312
P/2004 A1 (LONEOS),e,10.5519,124.8515,21.5340,7.950775,0.0439633,0.30959770,251.7304,04/27.0/2020,2000,g  6.5,4.0
# From MPC 54558
P/2004 DO29 (Spacewatch-LINEAR),e,14.5312,147.3925,40.7624,7.280437,0.0501728,0.44161205,284.7663,04/27.0/2020,2000,g 13.5,2.0
# From MPC 54823
P/2004 FY140 (LINEAR),e,2.1349,326.7652,242.4783,4.899988,0.0908681,0.16904135,157.8008,04/27.0/2020,2000,g 12.5,2.0
# From MPC 53304
P/2004 R3 (LINEAR-NEAT),e,12.8114,305.5146,39.5998,4.774800,0.0944651,0.26055424,310.5226,04/27.0/2020,2000,g 14.5,4.0
# From MPC 55521
P/2004 V3 (Siding Spring),e,50.4210,356.1078,322.2523,7.146926,0.0515852,0.44622503,292.7430,04/27.0/2020,2000,g 11.5,4.0
# From MPC 75705
P/2004 V5 (LINEAR-Hill),e,19.3486,47.7510,87.8744,7.971887,0.0437887,0.44365750,243.0199,04/27.0/2020,2000,g  8.0,4.0
# From MPC 54164
P/2005 E1 (Tubbiolo),e,4.2637,335.5836,194.1831,7.034702,0.0528245,0.37535540,293.9058,04/27.0/2020,2000,g 10.0,4.0
# From MPC 54823
P/2005 GF8 (LONEOS),e,1.1932,314.8433,285.3809,5.875220,0.0692098,0.51829781,14.5043,04/27.0/2020,2000,g 11.5,4.0
# From MPC 79019
P/2005 J1 (McNaught),e,31.7694,268.7968,338.9415,3.569021,0.1461775,0.57010158,82.1772,04/27.0/2020,2000,g 16.5,4.0
# From MPC 75705
P/2005 JD108 (Catalina-NEAT),e,3.2807,223.8080,89.8681,6.520248,0.0591981,0.37663416,323.6345,04/27.0/2020,2000,g 10.0,4.0
# From MPC 74246
P/2005 L1 (McNaught),e,7.7384,138.2455,149.6335,3.976010,0.1243177,0.20930362,291.0858,04/27.0/2020,2000,g  9.5,4.0
# From MPC 75706
P/2005 S2 (Skiff),e,3.1356,161.1833,229.2045,8.019344,0.0434006,0.19635656,221.4952,04/27.0/2020,2000,g  7.5,4.0
# From MPC 75706
P/2005 SB216 (LONEOS),e,24.0630,1.2804,83.4196,7.124100,0.0518333,0.46294666,251.3612,04/27.0/2020,2000,g 12.0,2.0
# From MPC 55717
P/2005 T2 (Christensen),e,8.2928,260.1591,58.8040,3.847155,0.1306155,0.41661884,2.4342,04/27.0/2020,2000,g 14.5,4.0
# From MPC 73461
P/2005 T3 (Read),e,6.2267,27.7813,7.2974,7.571696,0.0473058,0.17346301,250.4536,04/27.0/2020,2000,g  9.0,4.0
# From MPC 73461
P/2005 T4 (SWAN),e,160.1475,25.5799,41.4848,9.359974,0.0344185,0.93014369,183.2927,04/27.0/2020,2000,g 15.0,4.0
# From MPC 75706
P/2005 T5 (Broughton),e,21.3447,57.0147,304.4881,7.293396,0.0500391,0.55158779,266.1560,04/27.0/2020,2000,g 11.0,4.0
# From MPC 56954
P/2005 W3 (Kowalski),e,16.4120,210.1245,200.5585,6.338233,0.0617663,0.54362490,328.4090,04/27.0/2020,2000,g 12.0,4.0
# From MPC 75706
P/2005 XA54 (LONEOS-Hill),e,17.1183,143.6747,15.1493,6.051228,0.0662123,0.71017402,341.6394,04/27.0/2020,2000,g 14.0,4.0
# From MPC 75706
P/2005 Y2 (McNaught),e,19.1091,94.5157,194.1688,6.362514,0.0614131,0.46869430,349.0979,04/27.0/2020,2000,g  9.0,4.0
# From MPC 56954
P/2006 F4 (Spacewatch),e,12.3868,183.9756,31.2407,3.529484,0.1486405,0.33887632,39.8477,04/27.0/2020,2000,g 15.0,4.0
# From MPC 58118
P/2006 H1 (McNaught),e,12.8052,359.8916,309.2776,5.771100,0.0710913,0.58021010,10.0586,04/27.0/2020,2000,g 12.5,4.0
# From MPC 75707
P/2006 HR30 (Siding Spring),e,31.8343,309.8901,117.3077,7.811128,0.0451475,0.84175261,220.3677,04/27.0/2020,2000,g 11.0,4.0
# From MPC 75707
P/2006 S4 (Christensen),e,39.5421,36.1032,305.1657,6.306463,0.0622337,0.50758669,320.9208,04/27.0/2020,2000,g 11.0,4.0
# From MPC 75707
P/2007 A2 (Christensen),e,26.4879,300.9075,186.8017,6.320713,0.0620233,0.55744111,301.2868,04/27.0/2020,2000,g 13.5,4.0
# From MPC 59319
P/2007 B1 (Christensen),e,12.3773,77.6666,46.7754,5.817171,0.0702484,0.58079980,340.7724,04/27.0/2020,2000,g 13.5,4.0
# From MPC 75707
P/2007 C2 (Catalina),e,8.6844,275.7310,179.7137,7.000216,0.0532153,0.46871640,244.8601,04/27.0/2020,2000,g 10.0,4.0
# From MPC 84315
C/2007 D1 (LINEAR),e,41.5005,171.1359,340.1905,1745,0.0000135,0.99493680,0.0000,06/11.3987/2007,2000,g  3.5,4.0
# From MPC 82314
P/2007 K2 (Gibbs),e,7.6422,188.6502,347.4999,7.259584,0.0503891,0.68375575,237.0991,04/27.0/2020,2000,g 14.0,4.0
# From MPC 60925
P/2007 Q2 (Gilmore),e,10.2006,172.1845,162.7882,5.655894,0.0732744,0.67039254,344.3167,04/27.0/2020,2000,g 16.0,4.0
# From MPC 75708
P/2007 R2 (Gibbs),e,1.2165,11.4356,352.3643,3.574450,0.1458446,0.54243409,339.2637,04/27.0/2020,2000,g 17.0,4.0
# From MPC 75708
P/2007 R4 (Garradd),e,20.2350,87.2177,282.7600,5.915745,0.0684999,0.66975241,319.5132,04/27.0/2020,2000,g 14.5,4.0
# From MPC 73462
P/2007 S1 (Zhao),e,5.9626,141.3958,245.8455,3.810212,0.1325197,0.33980356,241.3993,04/27.0/2020,2000,g 13.0,4.0
# From MPC 61994
P/2007 T2 (Kowalski),e,9.7400,3.3797,359.6349,3.047528,0.1852603,0.78501398,119.2060,04/27.0/2020,2000,g 18.5,4.0
# From MPC 75708
P/2007 VQ11 (Catalina),e,12.3203,163.8200,277.6851,5.424393,0.0780149,0.50311783,348.7598,04/27.0/2020,2000,g 12.0,4.0
# From MPC 75708
P/2008 CL94 (Lemmon),e,8.3489,33.3433,80.6908,6.158427,0.0644910,0.12005525,326.7855,04/27.0/2020,2000,g  8.0,4.0
# From MPC 75709
P/2008 L2 (Hill),e,25.8487,218.0037,141.1975,6.028764,0.0665827,0.61275009,286.1218,04/27.0/2020,2000,g 12.5,4.0
# From MPC 64114
P/2008 O3 (Boattini),e,32.2233,47.6134,341.0776,8.225661,0.0417780,0.69455172,182.1009,04/27.0/2020,2000,g 13.0,4.0
# From MPC 75709
P/2008 QP20 (LINEAR-Hill),e,7.5164,322.1344,75.7567,3.547106,0.1475343,0.49309772,269.2661,04/27.0/2020,2000,g 15.5,4.0
# From MPC 66204
P/2008 WZ96 (LINEAR),e,7.1293,56.6394,341.7957,3.490903,0.1511115,0.47164171,286.5195,04/27.0/2020,2000,g 13.5,4.0
# From MPC 75710
P/2008 Y3 (McNaught),e,38.7590,262.7795,238.3365,8.044535,0.0431969,0.44575074,178.6524,04/27.0/2020,2000,g  8.5,4.0
# From MPC 75710
P/2009 B1 (Boattini),e,22.2191,297.0915,128.9305,6.734203,0.0563994,0.63445348,232.5460,04/27.0/2020,2000,g 13.0,4.0
# From MPC 66466
C/2009 G1 (STEREO),e,108.7402,120.4369,175.3471,413.2107,0.0001173,0.99726116,0.0000,04/14.4271/2009,2000,g  9.0,4.0
# From MPC 75710
P/2009 O3 (Hill),e,16.2511,183.7370,154.3505,7.772530,0.0454842,0.68715398,181.8337,04/27.0/2020,2000,g 12.5,4.0
# From MPC 98557
P/2009 Q1 (Hill),e,14.5044,173.9544,157.1121,5.519933,0.0759982,0.49455662,302.4492,04/27.0/2020,2000,g 11.5,4.0
# From MPC112389
P/2009 Q4 (Boattini),e,11.0152,127.4648,320.2224,3.127971,0.1781599,0.58251382,316.5330,04/27.0/2020,2000,g 15.5,4.0
# From MPC 68902
P/2009 Q5 (McNaught),e,40.9566,160.2457,209.0201,7.440564,0.0485619,0.60816223,189.0007,04/27.0/2020,2000,g 10.0,4.0
# From MPC112389
P/2009 T2 (La Sagra),e,27.5251,215.7578,216.4685,7.725666,0.0458987,0.76479829,173.1616,04/27.0/2020,2000,g 14.0,4.0
# From MPC 75711
P/2009 U4 (McNaught),e,10.0818,55.3599,259.8540,5.080002,0.0860812,0.67589000,335.8844,04/27.0/2020,2000,g 14.0,4.0
# From MPC105235
P/2009 WX51 (Catalina),e,9.5959,31.6888,118.0709,3.078588,0.1824638,0.74017332,322.8935,04/27.0/2020,2000,g 19.0,2.0
# From MPC 74247
P/2009 Y2 (Kowalski),e,29.9280,262.0237,172.2097,6.547726,0.0588259,0.63574149,217.9406,04/27.0/2020,2000,g 13.0,4.0
# From MPC 75711
P/2010 A3 (Hill),e,14.8963,64.2890,41.7646,6.074143,0.0658380,0.73289097,242.6002,04/27.0/2020,2000,g 14.0,4.0
# From MPEC 2020-H67
C/2010 A4 (Siding Spring),e,96.5960,346.5045,271.5362,283.2742,0.0002067,0.99039557,0.0000,10/10.9549/2010,2000,g 12.5,4.0
# From MPC 72851
P/2010 A5 (LINEAR),e,5.7985,277.6649,307.0865,5.084800,0.0859594,0.66517836,313.7186,04/27.0/2020,2000,g 13.0,4.0
# From MPC105235
P/2010 B2 (WISE),e,8.9306,0.8533,155.9282,3.109791,0.1797245,0.47991985,320.1759,04/27.0/2020,2000,g 17.0,4.0
# From MPC 75008
P/2010 C1 (Scotti),e,9.1288,141.8874,3.8884,7.101389,0.0520822,0.25865613,198.4368,04/27.0/2020,2000,g  9.5,4.0
# From MPC 75008
P/2010 D2 (WISE),e,57.0858,319.8905,120.1539,6.714817,0.0566439,0.45068159,210.6778,04/27.0/2020,2000,g 16.0,4.0
# From MPC 75009
P/2010 E2 (Jarnac),e,15.4191,177.8253,8.3735,8.636159,0.0388350,0.72073221,142.6712,04/27.0/2020,2000,g 14.0,4.0
# From MPC 72851
P/2010 H2 (Vales),e,14.2724,64.2175,128.3121,3.835763,0.1311978,0.19550888,125.9733,04/27.0/2020,2000,g  6.0,4.0
# From MPC 70361
